[{"OBJECT_NAME":"OBJECT A","OBJECT_ID":"2023-189A","EPOCH":"2026-03-09T22:59:06.381600","MEAN_MOTION":15.32403275,"ECCENTRICITY":0.00094831,"INCLINATION":97.4458,"RA_OF_ASC_NODE":86.5997,"ARG_OF_PERICENTER":249.5377,"MEAN_ANOMALY":110.4847,"EPHEMERIS_TYPE":0,"CLASSIFICATION_TYPE":"U","NORAD_CAT_ID":58502,"ELEMENT_SET_NO":999,"REV_AT_EPOCH":12601,"BSTAR":0.00019874471,"MEAN_MOTION_DOT":6.146e-5,"MEAN_MOTION_DDOT":0},{"OBJECT_NAME":"STARLINK-34197","OBJECT_ID":"2025-113Q","EPOCH":"2026-03-09T07:18:07.396992","MEAN_MOTION":15.30156015,"ECCENTRICITY":0.00016174,"INCLINATION":53.1588,"RA_OF_ASC_NODE":93.0984,"ARG_OF_PERICENTER":64.8864,"MEAN_ANOMALY":295.2305,"EPHEMERIS_TYPE":0,"CLASSIFICATION_TYPE":"U","NORAD_CAT_ID":64184,"ELEMENT_SET_NO":999,"REV_AT_EPOCH":4500,"BSTAR":1.0455838e-5,"MEAN_MOTION_DOT":-5.0e-7,"MEAN_MOTION_DDOT":0}]
